IRIDIUM 57              
1 25273U 98019B   25003.49020788  .00000995  00000+0  33835-3 0  9991
2 25273  86.3965 214.1982 0001910  87.7123 272.4292 14.35669283401150
IRIDIUM 63              
1 25286U 98021B   25003.50171847  .00001609  00000+0  54437-3 0  9997
2 25286  86.4014 151.1858 0002157  91.1897 268.9547 14.36296112400209
IRIDIUM 69              
1 25319U 98026A   25003.46071910  .00001982  00000+0  61558-3 0  9990
2 25319  86.4007 164.9718 0002304 155.9017 204.2291 14.40641625399341
IRIDIUM 71              
1 25320U 98026B   25003.49116685  .00001692  00000+0  52216-3 0  9993
2 25320  86.4006 159.6857 0000144 272.0839  88.0344 14.40878838399873
IRIDIUM 73              
1 25344U 98032C   25003.57908342  .00002240  00000+0  55786-3 0  9999
2 25344  86.4430 116.7343 0002133 112.2453 247.8979 14.51314963406684
IRIDIUM 82              
1 25467U 98051A   25003.49366981  .00032172  00000+0  12294-2 0  9997
2 25467  86.3720 189.9843 0103223 197.2235 162.5499 15.21539381398828
